CAS-2T & KS-1Q          
1 41847U 16066G   20169.55433992  .00000076  00000-0  22487-4 0  9991
2 41847  98.6537 220.0722 0364794 228.5172 128.4167 14.38071115189434
NAYIF-1 (EO-88)         
1 42017U 17008BX  20169.48357779  .00001014  00000-0  41617-4 0  9997
2 42017  97.3597 237.0454 0005260 337.2442  22.8563 15.26502589185552
MAX VALIER SAT          
1 42778U 17036P   20169.40803641  .00000671  00000-0  31768-4 0  9992
2 42778  97.3047 223.0453 0012945  30.4395 329.7591 15.22624039165725
RADFXSAT (FOX-1B)       
1 43017U 17073E   20169.52510414  .00000560  00000-0  48385-4 0  9996
2 43017  97.7234  81.7578 0258259  50.3468 312.0222 14.78938743139179
FOX-1D (AO-92)          
1 43137U 18004AC  20169.41848821  .00000669  00000-0  30440-4 0  9991
2 43137  97.4456 240.5797 0010625  61.6396 298.5911 15.24126630135042
DIWATA-2B               
1 43678U 18084H   20169.54133648 -.00000321  00000-0 -26228-4 0  9993
2 43678  97.8841 287.9443 0010058 169.0008 191.1440 14.91630337 89039
ES'HAIL 2               
1 43700U 18090A   20169.27313877  .00000156  00000-0  00000+0 0  9999
2 43700   0.0118 321.0434 0001242 156.6518 272.4256  1.00274490  5958
FOX-1CLIFF (AO-95)      
1 43770U 18099N   20169.44162583 -.00000182  00000-0 -11400-4 0  9992
2 43770  97.7057 240.8225 0014233 191.3396 168.7506 14.94991665 83914
ITASAT 1                
1 43786U 18099AE  20169.43855375 -.00000140  00000-0 -74710-5 0  9994
2 43786  97.7073 241.2391 0015020 185.0573 175.0498 14.95331586 83934
JY1SAT (JO-97)          
1 43803U 18099AX  20169.45308911 -.00000127  00000-0 -62486-5 0  9997
2 43803  97.7031 241.0723 0015036 185.7113 174.3938 14.95505705 83936
PSAT2 (NO-104)          
1 44354U 19036R   20169.25663767  .00004542  00000-0  62405-4 0  9995
2 44354  28.5338  21.8911 0364240 308.9595  47.9070 15.03464603 53794
BRICSAT2 (NO-103)       
1 44355U 19036S   20169.26546533  .00009787  00000-0  13408-3 0  9992
2 44355  28.5334  13.1722 0343222 323.1493  34.5962 15.08793378 53889
JAISAT-1                
1 44419U 19038F   20169.42302446  .00000580  00000-0  36642-4 0  9994
2 44419  97.5384 131.0187 0022851 127.9379 232.3921 15.12782124 52593
DUCHIFAT-3              
1 44854U 19089C   20169.49448620  .00000253  00000-0  26880-4 0  9995
2 44854  36.9659  98.1079 0007447  56.4729 303.6733 14.99069204 28306
RS-44 & BREEZE-KM R/B   
1 44909U 19096E   20169.43642669  .00000035  00000-0  98609-4 0  9993
2 44909  82.5212 355.3256 0216588 226.3606 131.9357 12.79707924 22182
ORBITAL FACTORY 2 (OF-2)
1 45113U 19071C   20169.54931340  .00001350  00000-0  52779-4 0  9992
2 45113  51.6453   3.0857 0013573  59.7494 300.4830 15.33356535 21145
HUSKYSAT-1              
1 45119U 19071J   20169.26703913  .00001157  00000-0  46601-4 0  9992
2 45119  51.6448   4.2020 0012814  55.4138 304.8051 15.33572845 21096
